{
    "links": {
        "self": "http://www.neowsapp.com/rest/v1/neo/3842587?api_key=iIulBulltgU6a56xZRHN4H3l9WmuAYTsLGpBGhQ2"
    },
    "id": "3842587",
    "neo_reference_id": "3842587",
    "name": "(2019 KC2)",
    "designation": "2019 KC2",
    "nasa_jpl_url": "http://ssd.jpl.nasa.gov/sbdb.cgi?sstr=3842587",
    "absolute_magnitude_h": 23.9,
    "estimated_diameter": {
        "kilometers": {
            "estimated_diameter_min": 0.04411182,
            "estimated_diameter_max": 0.0986370281
        },
        "meters": {
            "estimated_diameter_min": 44.1118199997,
            "estimated_diameter_max": 98.6370281305
        },
        "miles": {
            "estimated_diameter_min": 0.0274098057,
            "estimated_diameter_max": 0.0612901888
        },
        "feet": {
            "estimated_diameter_min": 144.7238235278,
            "estimated_diameter_max": 323.6123073718
        }
    },
    "is_potentially_hazardous_asteroid": false,
    "close_approach_data": [
        {
            "close_approach_date": "2019-05-18",
            "close_approach_date_full": "2019-May-18 21:44",
            "epoch_date_close_approach": 1558215840000,
            "relative_velocity": {
                "kilometers_per_second": "11.4730580193",
                "kilometers_per_hour": "41303.0088693256",
                "miles_per_hour": "25664.0834832762"
            },
            "miss_distance": {
                "astronomical": "0.0952254324",
                "lunar": "37.0426932036",
                "kilometers": "14245521.856868988",
                "miles": "8851756.8204405144"
            },
            "orbiting_body": "Earth"
        },
        {
            "close_approach_date": "2019-11-01",
            "close_approach_date_full": "2019-Nov-01 11:19",
            "epoch_date_close_approach": 1572607140000,
            "relative_velocity": {
                "kilometers_per_second": "11.5099184626",
                "kilometers_per_hour": "41435.706465445",
                "miles_per_hour": "25746.5366090427"
            },
            "miss_distance": {
                "astronomical": "0.2012215063",
                "lunar": "78.2751659507",
                "kilometers": "30102308.740671581",
                "miles": "18704707.3026505778"
            },
            "orbiting_body": "Earth"
        }
    ],
    "orbital_data": {
        "orbit_id": "1",
        "orbit_determination_date": "2019-05-30 08:12:19",
        "first_observation_date": "2019-05-27",
        "last_observation_date": "2019-05-30",
        "data_arc_in_days": 3,
        "observations_used": 27,
        "orbit_uncertainty": "9",
        "minimum_orbit_intersection": ".0931901",
        "jupiter_tisserand_invariant": "5.222",
        "epoch_osculation": "2458631.5",
        "eccentricity": ".1705154373675662",
        "semi_major_axis": "1.199188637691692",
        "inclination": "21.02939986060597",
        "ascending_node_longitude": "231.6619897385992",
        "orbital_period": "479.6557822436255",
        "perihelion_distance": ".9947084626494774",
        "perihelion_argument": "74.52535058343936",
        "aphelion_distance": "1.403668812733907",
        "perihelion_time": "2458691.766301956617",
        "mean_anomaly": "314.7678366288048",
        "mean_motion": ".7505382262172954",
        "equinox": "J2000",
        "orbit_class": {
            "orbit_class_type": "APO",
            "orbit_class_description": "Near-Earth asteroid orbits which cross the Earth’s orbit similar to that of 1862 Apollo",
            "orbit_class_range": "a (semi-major axis) > 1.0 AU; q (perihelion) < 1.017 AU"
        }
    },
    "is_sentry_object": false
}